{
  "norad_id": 47800,
  "name": "STARLINK-2381",
  "history": [
    {
      "epoch": "2026-03-28T20:41:29.661504",
      "apogee_km": 547.8890082787912,
      "perigee_km": 546.5287318429946,
      "latitude_deg": 37.845987177776856,
      "longitude_deg": 122.76629056013189,
      "semi_major_axis_km": 6925.345870060893,
      "eccentricity": 9.821e-05,
      "inclination_deg": 53.0543,
      "raan_deg": 145.5506,
      "arg_perigee_deg": 76.5648,
      "mean_anomaly_deg": 283.545,
      "mean_motion_rev_day": 15.06400877
    }
  ]
}